QZS-1R                  
1 49336U 21096A   23261.42341204 -.00000214  00000+0  00000+0 0  9993
2 49336  35.3800  94.6995 0744041 269.5652 279.3593  1.00288554  6954
